#aV2014  3 16  0  0  0.00000000     288 DD+AD WGS84 FIT  NGA
## 1784      0.00000000   300.00000000 56732 0.0000000000000
+   31     1  2  3  4  5  7  8  9 10 11 12 13 14 15 16 17 18
+         19 20 21 22 23 24 25 26 27 28 29 30 31 32  0  0  0
+          0  0  0  0  0  0  0  0  0  0  0  0  0  0  0  0  0
+          0  0  0  0  0  0  0  0  0  0  0  0  0  0  0  0  0
+          0  0  0  0  0  0  0  0  0  0  0  0  0  0  0  0  0
++         2  2  2  2  2  2  2  2  2  2  2  2  2  2  2  2  2
++         2  2  2  2  2  2  2  2  2  2  2  2  2  2  0  0  0
++         0  0  0  0  0  0  0  0  0  0  0  0  0  0  0  0  0
++         0  0  0  0  0  0  0  0  0  0  0  0  0  0  0  0  0
++         0  0  0  0  0  0  0  0  0  0  0  0  0  0  0  0  0
%c cc cc ccc ccc cccc cccc cccc cccc ccccc ccccc ccccc ccccc
%c cc cc ccc ccc cccc cccc cccc cccc ccccc ccccc ccccc ccccc
%f  0.0000000  0.000000000  0.00000000000  0.000000000000000
%f  0.0000000  0.000000000  0.00000000000  0.000000000000000
%i    0    0    0    0      0      0      0      0         0
%i    0    0    0    0      0      0      0      0         0
/*      NGA, ST. LOUIS,MO.                                  
/*   EPHEMERIS COMPUTED FROM  1 DAYS OF DATA                
/*   EPOCHA SMOOTHER                                       
/* CCCCCCCCCCCCCCCCCCCCCCCCCCCCCCCCCCCCCCCCCCCCCCCCCCCCCCCCC
*  2014  3 16 18  0  0.00000000
P  1 -17170.294067  -3350.184637  19991.796140      4.333396                    
V  1 -10193.800518 -23303.768065 -12515.329798      0.018359                    
P  2  14687.599621  22077.638750  -3808.610703    484.273687                    
V  2   -319.699792   5942.322077  30467.194418      0.021798                    
P  3 -21199.943712  -8626.951527 -14154.835020    339.064378                    
V  3  16798.014589  -3876.719659 -23551.669981      0.051848                    
P  4   4523.437399  24206.843823   9325.564217      6.146593                    
V  4  -8626.115351  -9529.421356  28239.004697      0.002513                    
P  5  10221.126055  12233.122631 -21262.703067   -384.006868                    
V  5 -15419.295355  22148.013924   5501.710218      0.018972                    
P  7 -10409.650512  11848.734410 -21247.321567    324.706557                    
V  7 -12116.302438 -24320.225744  -7918.700111      0.042076                    
P  8  -3709.022846  20513.143805 -15927.024776     12.362133                    
V  8  -8326.124670 -18999.202306 -22907.309009      0.002280                    
P  9  -1043.550775  21682.170271 -15718.899103    312.871494                    
V  9  -9685.679836 -16440.166815 -22974.981143      0.027994                    
P 10  -5779.357269  23161.907286 -11515.742148   -118.336002                    
V 10 -10666.295945  10032.576409  26719.695359     -0.014115                    
P 11 -21920.513519  -8469.057423  12093.689641   -472.630920                    
V 11  -8441.700169 -14419.791965 -24210.218845     -0.032679                    
P 12  18243.019660  -4130.556550  18708.240729    192.564799                    
V 12 -13039.889670  20051.690150  17306.805924      0.023883                    
P 13 -21676.027383   6073.324251 -14352.238529     19.574599                    
V 13 -17365.647732  -4609.591815  24363.067662     -0.038839                    
P 14   5272.661307 -14393.865905  21891.336595    189.962027                    
V 14  26957.516183   4141.987346  -3947.671823     -0.032476                    
P 15  25895.204433   4399.605823  -4935.445241   -168.556861                    
V 15  -6263.500213   3035.327567 -30200.676462     -0.021100                    
P 16  -8952.167343 -12105.062482 -21876.106200   -227.475310                    
V 16  17011.502220 -21817.246522   5470.271186      0.016479                    
P 17  -3179.803106  14899.971842  22000.579621    -76.868864                    
V 17 -27132.561421  -3174.533274  -2018.276294     -0.032152                    
P 18  16599.988082 -20056.643112  -3813.257443    307.606400                    
V 18    504.643535   6845.007556 -30676.365032      0.021494                    
P 19 -24959.984383  -7994.829309  -5709.220705   -445.117488                    
V 19   7256.095423  -1086.453210 -30463.632254     -0.023666                    
P 20 -18843.487169   6542.903085  17311.813659    170.619857                    
V 20   9330.196278 -20598.549320  17819.323595      0.035325                    
P 21   9150.459876 -14327.826157 -19674.869214   -349.723497                    
V 21  13338.880930  23059.620163 -10738.933760     -0.022447                    
P 22   8862.878288 -23835.049862   7584.682602    220.010410                    
V 22   8384.258159  -5806.849078 -28970.289312      0.025970                    
P 23 -26618.764770     32.032035  -2861.043059     -4.383748                    
V 23  -3497.127149  -3001.289692  31021.553828     -0.031926                    
P 24  18126.223361   8801.703181  17334.024087    -25.036439                    
V 24   8408.682422  20420.054473 -19051.942103     -0.006263                    
P 25  18631.177015 -15978.160741   9919.648705     18.728484                    
V 25  -5175.915223  11813.034013  28698.769374      0.014149                    
P 26  18251.043389  13243.545134 -14934.761791    136.914341                    
V 26 -17658.173568  -1515.131506 -23696.412912     -0.110360                    
P 27 -16846.924657 -12461.432099 -16348.134487    -20.389783                    
V 27  20807.829459   -513.728821 -21006.304869     -0.002042                    
P 28 -12486.841869  22764.715551   5828.203011    340.043941                    
V 28  -5582.814242   4080.287793 -31269.958277      0.029011                    
P 29  22861.440760  -5742.580749 -12151.884878    518.526811                    
V 29  15144.443517   3977.561181  26558.036377      0.027998                    
P 30  -4752.350160  19965.294455 -16856.377503      3.868240                    
V 30  -9614.873144 -19208.468855 -20062.795182     -0.003636                    
P 31  -6799.120285 -24789.908118   6147.039385    333.856378                    
V 31   5351.546947   5970.397823  31076.510220      0.002038                    
P 32 -13744.083706  -7492.823497  21476.571569   -468.000699                    
V 32  16525.797730 -21639.002193   3574.386773      0.071932                    
EOF
